[
  {
    "CCSDS_OMM_VERS": "3.0",
    "COMMENT": "GENERATED VIA SPACE-TRACK.ORG API",
    "CREATION_DATE": "2026-02-19T17:59:09",
    "ORIGINATOR": "18 SPCS",
    "OBJECT_NAME": "ONEWEB-0563",
    "OBJECT_ID": "2023-029E",
    "CENTER_NAME": "EARTH",
    "REF_FRAME": "TEME",
    "TIME_SYSTEM": "UTC",
    "MEAN_ELEMENT_THEORY": "SGP4",
    "EPOCH": "2026-02-19T15:24:43.519968",
    "MEAN_MOTION": "13.20770670",
    "ECCENTRICITY": "0.00013819",
    "INCLINATION": "87.9194",
    "RA_OF_ASC_NODE": "297.9565",
    "ARG_OF_PERICENTER": "83.8455",
    "MEAN_ANOMALY": "276.2836",
    "EPHEMERIS_TYPE": "0",
    "CLASSIFICATION_TYPE": "U",
    "NORAD_CAT_ID": "55800",
    "ELEMENT_SET_NO": "999",
    "REV_AT_EPOCH": "14562",
    "BSTAR": "0.00017701669000",
    "MEAN_MOTION_DOT": "0.00000085",
    "MEAN_MOTION_DDOT": "0.0000000000000",
    "SEMIMAJOR_AXIS": "7559.915",
    "PERIOD": "109.027",
    "APOAPSIS": "1182.824",
    "PERIAPSIS": "1180.735",
    "OBJECT_TYPE": "PAYLOAD",
    "RCS_SIZE": "LARGE",
    "COUNTRY_CODE": "UK",
    "LAUNCH_DATE": "2023-03-09",
    "SITE": "AFETR",
    "DECAY_DATE": null,
    "FILE": "5039972",
    "GP_ID": "313177263",
    "TLE_LINE0": "0 ONEWEB-0563",
    "TLE_LINE1": "1 55800U 23029E   26050.64217037  .00000085  00000-0  17702-3 0  9990",
    "TLE_LINE2": "2 55800  87.9194 297.9565 0001382  83.8455 276.2836 13.20770670145623"
  },
  {
    "CCSDS_OMM_VERS": "3.0",
    "COMMENT": "GENERATED VIA SPACE-TRACK.ORG API",
    "CREATION_DATE": "2026-02-19T17:59:09",
    "ORIGINATOR": "18 SPCS",
    "OBJECT_NAME": "STARLINK-33905",
    "OBJECT_ID": "2025-094T",
    "CENTER_NAME": "EARTH",
    "REF_FRAME": "TEME",
    "TIME_SYSTEM": "UTC",
    "MEAN_ELEMENT_THEORY": "SGP4",
    "EPOCH": "2026-02-19T15:24:43.506144",
    "MEAN_MOTION": "14.98329590",
    "ECCENTRICITY": "0.00024160",
    "INCLINATION": "69.9997",
    "RA_OF_ASC_NODE": "279.8098",
    "ARG_OF_PERICENTER": "265.6646",
    "MEAN_ANOMALY": "94.4237",
    "EPHEMERIS_TYPE": "0",
    "CLASSIFICATION_TYPE": "U",
    "NORAD_CAT_ID": "63881",
    "ELEMENT_SET_NO": "999",
    "REV_AT_EPOCH": "4450",
    "BSTAR": "0.00039742161000",
    "MEAN_MOTION_DOT": "0.00004652",
    "MEAN_MOTION_DDOT": "0.0000000000000",
    "SEMIMAJOR_AXIS": "6950.194",
    "PERIOD": "96.107",
    "APOAPSIS": "573.738",
    "PERIAPSIS": "570.380",
    "OBJECT_TYPE": "PAYLOAD",
    "RCS_SIZE": "LARGE",
    "COUNTRY_CODE": "US",
    "LAUNCH_DATE": "2025-05-10",
    "SITE": "AFWTR",
    "DECAY_DATE": null,
    "FILE": "5039972",
    "GP_ID": "313184139",
    "TLE_LINE0": "0 STARLINK-33905",
    "TLE_LINE1": "1 63881U 25094T   26050.64217021  .00004652  00000-0  39742-3 0  9997",
    "TLE_LINE2": "2 63881  69.9997 279.8098 0002416 265.6646  94.4237 14.98329590 44500"
  }
]